ASTROCAST-0403          
1 55111U 23001DG  26068.82333059  .00013959  00000+0  51317-3 0  9990
2 55111  97.5604 161.3228 0004771 338.0704  22.0330 15.28004949129377
STARLINK-32941          
1 63119U 25039R   26068.13754202  .00032157  00000+0  11736-2 0  9992
2 63119  43.0034   4.5285 0001905 261.3183  98.7453 15.27563076 58112
